GLOBALSTAR M068 [-]     
1 32266U 07048D   23357.43557515 -.00000069  00000+0  19372-3 0  9993
2 32266  51.9865 153.6243 0001614  73.0452 305.7195 12.62775136749406
GLOBALSTAR M079 [+]     
1 37188U 10054A   23357.42264844 -.00000081  00000+0  12807-3 0  9991
2 37188  52.0062 349.0043 0000228 109.3133  55.1784 12.62270763608717
GLOBALSTAR M074 [+]     
1 37189U 10054B   23356.32749590 -.00000087  00000+0  93985-4 0  9999
2 37189  52.0043 351.7470 0000317  53.8620  51.7923 12.62263395608501
GLOBALSTAR M076 [+]     
1 37190U 10054C   23356.98362997 -.00000090  00000+0  77557-4 0  9996
2 37190  52.0053 349.8719 0000280 250.2437 196.9635 12.62264519608664
GLOBALSTAR M077 [+]     
1 37191U 10054D   23357.30416681 -.00000085  00000+0  10735-3 0  9992
2 37191  52.0087 305.5961 0000590  44.0108 120.1024 12.62267571609458
GLOBALSTAR M075 [+]     
1 37192U 10054E   23357.13980831 -.00000087  00000+0  92843-4 0  9990
2 37192  51.9966  31.9552 0000478 127.5811 248.9525 12.62268379607924
GLOBALSTAR M073 [+]     
1 37193U 10054F   23357.15878767 -.00000096  00000+0  45763-4 0  9996
2 37193  52.0079 305.2990 0000529  50.4313  54.4233 12.62270482609435
GLOBALSTAR M083 [+]     
1 37739U 11033A   23357.18519306 -.00000084  00000+0  11240-3 0  9993
2 37739  51.9857 254.6917 0001074  76.7707  88.5112 12.62264180578766
GLOBALSTAR M088 [+]     
1 37740U 11033B   23356.66505284 -.00000073  00000+0  17321-3 0  9991
2 37740  51.9710 162.2218 0001345 102.1589 338.6351 12.62269092573886
GLOBALSTAR M091 [+]     
1 37741U 11033C   23356.68343264 -.00000089  00000+0  85238-4 0  9992
2 37741  51.9992 124.7506 0001208 113.9584 349.5432 12.62269876574674
GLOBALSTAR M085 [+]     
1 37742U 11033D   23356.42759748 -.00000106  00000+0 -10634-4 0  9992
2 37742  51.9881  77.0494 0000876 123.2624 317.1777 12.62265916575155
GLOBALSTAR M081 [+]     
1 37743U 11033E   23357.56869520 -.00000099  00000+0  25611-4 0  9990
2 37743  51.9969  76.0268 0000913 140.1156 328.3546 12.62267681575824
GLOBALSTAR M089 [+]     
1 37744U 11033F   23356.96581120 -.00000078  00000+0  14334-3 0  9997
2 37744  51.9957  32.1942 0000228 162.9195 265.0284 12.62270367576460
GLOBALSTAR M084 [+]     
1 38040U 11080A   23357.15517584 -.00000078  00000+0  14388-3 0  9993
2 38040  52.0010 258.6191 0000733  43.5783 104.0007 12.62269563554491
GLOBALSTAR M080 [+]     
1 38041U 11080B   23357.12868750 -.00000079  00000+0  13978-3 0  9990
2 38041  52.0058 260.1165 0000517  43.5682 103.3827 12.62267605554476
GLOBALSTAR M082 [+]     
1 38042U 11080C   23356.81016242 -.00000066  00000+0  21003-3 0  9991
2 38042  52.0053 216.4729 0001697  80.4349 359.5313 12.62264690555008
GLOBALSTAR M092 [+]     
1 38043U 11080D   23357.18515628 -.00000094  00000+0  53367-4 0  9995
2 38043  52.0103 305.6797 0000635  17.1497  86.6583 12.62247819553710
GLOBALSTAR M090 [+]     
1 38044U 11080E   23356.92088255 -.00000066  00000+0  21042-3 0  9991
2 38044  51.9864 210.6419 0001347  84.6976  19.3151 12.62265039555137
GLOBALSTAR M086 [+]     
1 38045U 11080F   23356.78357196 -.00000072  00000+0  17792-3 0  9993
2 38045  51.9876 211.5706 0001084 131.7420 307.0937 12.62265896555068
GLOBALSTAR M097 [+]     
1 39072U 13005A   23357.50513772 -.00000119  00000+0 -85066-4 0  9991
2 39072  52.0041 123.3665 0001128 111.5046 248.5941 12.62273590502480
GLOBALSTAR M093 [+]     
1 39073U 13005B   23356.52835996 -.00000100  00000+0  22201-4 0  9999
2 39073  51.9810 120.5097 0001328 122.2349 237.8646 12.62278440502356
GLOBALSTAR M094 [+]     
1 39074U 13005C   23357.47878649 -.00000083  00000+0  11428-3 0  9995
2 39074  51.9985  31.4610 0000475 133.5841 226.5065 12.62270559503988
GLOBALSTAR M096 [+]     
1 39075U 13005D   23357.17540176 -.00000109  00000+0 -30947-4 0  9992
2 39075  52.0084  80.4743 0000937 127.5362 232.5590 12.62267030503199
GLOBALSTAR M078 [+]     
1 39076U 13005E   23357.46561114 -.00000088  00000+0  88624-4 0  9990
2 39076  51.9849 164.8359 0001883  77.4984 282.6093 12.62264817501711
GLOBALSTAR M095 [+]     
1 39077U 13005F   23356.77925728 -.00000080  00000+0  13489-3 0  9997
2 39077  51.9777 164.3911 0001808  96.1834 263.9238 12.62272212501272
GLOBALSTAR M087 [+]     
1 52888U 22064A   23356.49172352 -.00000102  00000+0  49120-4 0  9990
2 52888  51.9765 107.9876 0008643 272.0686  87.9225 13.37560654 73740
